STARLINK-37303          
1 68709U 26081L   26119.84264722  .00371223  00000+0  17944-2 0  9995
2 68709  53.1581 164.4951 0001940  69.6209 290.5022 15.80997573  2467
STARLINK-36859          
1 68710U 26081M   26119.84190169  .00436150  00000+0  20899-2 0  9994
2 68710  53.1584 164.4902 0002681  75.0789 285.0531 15.81015846  2464
STARLINK-37320          
1 68711U 26081N   26119.84114874  .00422173  00000+0  20267-2 0  9993
2 68711  53.1582 164.4846 0002075  60.9971 299.1259 15.81011541  2464
STARLINK-37318          
1 68712U 26081P   26119.84039604  .00430318  00000+0  20630-2 0  9995
2 68712  53.1581 164.4797 0001727  68.3785 291.7421 15.81019300  2467
STARLINK-37305          
1 68713U 26081Q   26119.83964567  .00363141  00000+0  17568-2 0  9995
2 68713  53.1585 164.4751 0001615  77.9132 282.2072 15.81000144  2463
STARLINK-37225          
1 68714U 26081R   26119.83889681  .00349510  00000+0  16942-2 0  9998
2 68714  53.1584 164.4698 0001931  63.7274 296.3947 15.80993807  2467
STARLINK-37322          
1 68715U 26081S   26119.83814493  .00368756  00000+0  17824-2 0  9991
2 68715  53.1584 164.4649 0001642  61.4319 298.6869 15.81005032  2461
STARLINK-36337          
1 68716U 26081T   26119.83739656  .00330969  00000+0  16084-2 0  9991
2 68716  53.1585 164.4599 0001869  73.5046 286.6182 15.80988005  2463
STARLINK-36685          
1 68717U 26081U   26119.83665177  .00396653  00000+0  19111-2 0  9994
2 68717  53.1585 164.4549 0002952  66.5772 293.5561 15.80999771  2461
STARLINK-36684          
1 68718U 26081V   26119.83589580  .00358275  00000+0  17340-2 0  9998
2 68718  53.1581 164.4503 0001902  79.1027 281.0209 15.81004021  2462
STARLINK-36686          
1 68719U 26081W   26119.58151668  .00124080  00000+0  62183-3 0  9994
2 68719  53.1591 165.7071 0001379  77.0709 283.0468 15.80920362  2429
STARLINK-36681          
1 68720U 26081X   26119.83514911  .00343034  00000+0  16650-2 0  9997
2 68720  53.1584 164.4449 0002395  69.1042 291.0237 15.80981996  2466
STARLINK-36680          
1 68721U 26081Y   26119.58076505  .00171500  00000+0  85274-3 0  9998
2 68721  53.1589 165.7016 0001011  81.3450 278.7687 15.80937966  2424
STARLINK-37271          
1 68722U 26081Z   26119.83289985  .00323300  00000+0  15734-2 0  9995
2 68722  53.1585 164.4299 0002710  65.3853 294.7452 15.80977366  2466
STARLINK-37273          
1 68723U 26081AA  26119.83214961  .00353758  00000+0  17145-2 0  9996
2 68723  53.1587 164.4248 0002515  67.6433 292.4856 15.80986037  2463
STARLINK-37274          
1 68724U 26081AB  26119.57851575  .00161926  00000+0  80662-3 0  9995
2 68724  53.1591 165.6868 0000698  85.5871 274.5231 15.80927298  2423
STARLINK-37275          
1 68725U 26081AC  26119.82989626  .00365359  00000+0  17671-2 0  9998
2 68725  53.1587 164.4095 0002155  72.1695 287.9563 15.81000279  2466
