[{"OBJECT_NAME":"STARLINK-37303","OBJECT_ID":"2026-081L","EPOCH":"2026-04-29T20:13:24.719808","MEAN_MOTION":15.80997573,"ECCENTRICITY":0.000194,"INCLINATION":53.1581,"RA_OF_ASC_NODE":164.4951,"ARG_OF_PERICENTER":69.6209,"MEAN_ANOMALY":290.5022,"EPHEMERIS_TYPE":0,"CLASSIFICATION_TYPE":"U","NORAD_CAT_ID":68709,"ELEMENT_SET_NO":999,"REV_AT_EPOCH":246,"BSTAR":0.0017944,"MEAN_MOTION_DOT":0.00371223,"MEAN_MOTION_DDOT":0},{"OBJECT_NAME":"STARLINK-36859","OBJECT_ID":"2026-081M","EPOCH":"2026-04-29T20:12:20.306016","MEAN_MOTION":15.81015846,"ECCENTRICITY":0.0002681,"INCLINATION":53.1584,"RA_OF_ASC_NODE":164.4902,"ARG_OF_PERICENTER":75.0789,"MEAN_ANOMALY":285.0531,"EPHEMERIS_TYPE":0,"CLASSIFICATION_TYPE":"U","NORAD_CAT_ID":68710,"ELEMENT_SET_NO":999,"REV_AT_EPOCH":246,"BSTAR":0.0020899,"MEAN_MOTION_DOT":0.0043615,"MEAN_MOTION_DDOT":0},{"OBJECT_NAME":"STARLINK-37320","OBJECT_ID":"2026-081N","EPOCH":"2026-04-29T20:11:15.251136","MEAN_MOTION":15.81011541,"ECCENTRICITY":0.0002075,"INCLINATION":53.1582,"RA_OF_ASC_NODE":164.4846,"ARG_OF_PERICENTER":60.9971,"MEAN_ANOMALY":299.1259,"EPHEMERIS_TYPE":0,"CLASSIFICATION_TYPE":"U","NORAD_CAT_ID":68711,"ELEMENT_SET_NO":999,"REV_AT_EPOCH":246,"BSTAR":0.0020267,"MEAN_MOTION_DOT":0.00422173,"MEAN_MOTION_DDOT":0},{"OBJECT_NAME":"STARLINK-37318","OBJECT_ID":"2026-081P","EPOCH":"2026-04-29T20:10:10.217856","MEAN_MOTION":15.810193,"ECCENTRICITY":0.0001727,"INCLINATION":53.1581,"RA_OF_ASC_NODE":164.4797,"ARG_OF_PERICENTER":68.3785,"MEAN_ANOMALY":291.7421,"EPHEMERIS_TYPE":0,"CLASSIFICATION_TYPE":"U","NORAD_CAT_ID":68712,"ELEMENT_SET_NO":999,"REV_AT_EPOCH":246,"BSTAR":0.002063,"MEAN_MOTION_DOT":0.00430318,"MEAN_MOTION_DDOT":0},{"OBJECT_NAME":"STARLINK-37305","OBJECT_ID":"2026-081Q","EPOCH":"2026-04-29T20:09:05.385888","MEAN_MOTION":15.81000144,"ECCENTRICITY":0.0001615,"INCLINATION":53.1585,"RA_OF_ASC_NODE":164.4751,"ARG_OF_PERICENTER":77.9132,"MEAN_ANOMALY":282.2072,"EPHEMERIS_TYPE":0,"CLASSIFICATION_TYPE":"U","NORAD_CAT_ID":68713,"ELEMENT_SET_NO":999,"REV_AT_EPOCH":246,"BSTAR":0.0017568,"MEAN_MOTION_DOT":0.00363141,"MEAN_MOTION_DDOT":0},{"OBJECT_NAME":"STARLINK-37225","OBJECT_ID":"2026-081R","EPOCH":"2026-04-29T20:08:00.684384","MEAN_MOTION":15.80993807,"ECCENTRICITY":0.0001931,"INCLINATION":53.1584,"RA_OF_ASC_NODE":164.4698,"ARG_OF_PERICENTER":63.7274,"MEAN_ANOMALY":296.3947,"EPHEMERIS_TYPE":0,"CLASSIFICATION_TYPE":"U","NORAD_CAT_ID":68714,"ELEMENT_SET_NO":999,"REV_AT_EPOCH":246,"BSTAR":0.0016942,"MEAN_MOTION_DOT":0.0034951,"MEAN_MOTION_DDOT":0},{"OBJECT_NAME":"STARLINK-37322","OBJECT_ID":"2026-081S","EPOCH":"2026-04-29T20:06:55.721952","MEAN_MOTION":15.81005032,"ECCENTRICITY":0.0001642,"INCLINATION":53.1584,"RA_OF_ASC_NODE":164.4649,"ARG_OF_PERICENTER":61.4319,"MEAN_ANOMALY":298.6869,"EPHEMERIS_TYPE":0,"CLASSIFICATION_TYPE":"U","NORAD_CAT_ID":68715,"ELEMENT_SET_NO":999,"REV_AT_EPOCH":246,"BSTAR":0.0017824,"MEAN_MOTION_DOT":0.00368756,"MEAN_MOTION_DDOT":0},{"OBJECT_NAME":"STARLINK-36337","OBJECT_ID":"2026-081T","EPOCH":"2026-04-29T20:05:51.062784","MEAN_MOTION":15.80988005,"ECCENTRICITY":0.0001869,"INCLINATION":53.1585,"RA_OF_ASC_NODE":164.4599,"ARG_OF_PERICENTER":73.5046,"MEAN_ANOMALY":286.6182,"EPHEMERIS_TYPE":0,"CLASSIFICATION_TYPE":"U","NORAD_CAT_ID":68716,"ELEMENT_SET_NO":999,"REV_AT_EPOCH":246,"BSTAR":0.0016084,"MEAN_MOTION_DOT":0.00330969,"MEAN_MOTION_DDOT":0},{"OBJECT_NAME":"STARLINK-36685","OBJECT_ID":"2026-081U","EPOCH":"2026-04-29T20:04:46.712928","MEAN_MOTION":15.80999771,"ECCENTRICITY":0.0002952,"INCLINATION":53.1585,"RA_OF_ASC_NODE":164.4549,"ARG_OF_PERICENTER":66.5772,"MEAN_ANOMALY":293.5561,"EPHEMERIS_TYPE":0,"CLASSIFICATION_TYPE":"U","NORAD_CAT_ID":68717,"ELEMENT_SET_NO":999,"REV_AT_EPOCH":246,"BSTAR":0.0019111,"MEAN_MOTION_DOT":0.00396653,"MEAN_MOTION_DDOT":0},{"OBJECT_NAME":"STARLINK-36684","OBJECT_ID":"2026-081V","EPOCH":"2026-04-29T20:03:41.397120","MEAN_MOTION":15.81004021,"ECCENTRICITY":0.0001902,"INCLINATION":53.1581,"RA_OF_ASC_NODE":164.4503,"ARG_OF_PERICENTER":79.1027,"MEAN_ANOMALY":281.0209,"EPHEMERIS_TYPE":0,"CLASSIFICATION_TYPE":"U","NORAD_CAT_ID":68718,"ELEMENT_SET_NO":999,"REV_AT_EPOCH":246,"BSTAR":0.001734,"MEAN_MOTION_DOT":0.00358275,"MEAN_MOTION_DDOT":0},{"OBJECT_NAME":"STARLINK-36686","OBJECT_ID":"2026-081W","EPOCH":"2026-04-29T13:57:23.041152","MEAN_MOTION":15.80920362,"ECCENTRICITY":0.0001379,"INCLINATION":53.1591,"RA_OF_ASC_NODE":165.7071,"ARG_OF_PERICENTER":77.0709,"MEAN_ANOMALY":283.0468,"EPHEMERIS_TYPE":0,"CLASSIFICATION_TYPE":"U","NORAD_CAT_ID":68719,"ELEMENT_SET_NO":999,"REV_AT_EPOCH":242,"BSTAR":0.00062183,"MEAN_MOTION_DOT":0.0012408,"MEAN_MOTION_DDOT":0},{"OBJECT_NAME":"STARLINK-36681","OBJECT_ID":"2026-081X","EPOCH":"2026-04-29T20:02:36.883104","MEAN_MOTION":15.80981996,"ECCENTRICITY":0.0002395,"INCLINATION":53.1584,"RA_OF_ASC_NODE":164.4449,"ARG_OF_PERICENTER":69.1042,"MEAN_ANOMALY":291.0237,"EPHEMERIS_TYPE":0,"CLASSIFICATION_TYPE":"U","NORAD_CAT_ID":68720,"ELEMENT_SET_NO":999,"REV_AT_EPOCH":246,"BSTAR":0.001665,"MEAN_MOTION_DOT":0.00343034,"MEAN_MOTION_DDOT":0},{"OBJECT_NAME":"STARLINK-36680","OBJECT_ID":"2026-081Y","EPOCH":"2026-04-29T13:56:18.100320","MEAN_MOTION":15.80937966,"ECCENTRICITY":0.0001011,"INCLINATION":53.1589,"RA_OF_ASC_NODE":165.7016,"ARG_OF_PERICENTER":81.345,"MEAN_ANOMALY":278.7687,"EPHEMERIS_TYPE":0,"CLASSIFICATION_TYPE":"U","NORAD_CAT_ID":68721,"ELEMENT_SET_NO":999,"REV_AT_EPOCH":242,"BSTAR":0.00085274,"MEAN_MOTION_DOT":0.001715,"MEAN_MOTION_DDOT":0},{"OBJECT_NAME":"STARLINK-37271","OBJECT_ID":"2026-081Z","EPOCH":"2026-04-29T19:59:22.547040","MEAN_MOTION":15.80977366,"ECCENTRICITY":0.000271,"INCLINATION":53.1585,"RA_OF_ASC_NODE":164.4299,"ARG_OF_PERICENTER":65.3853,"MEAN_ANOMALY":294.7452,"EPHEMERIS_TYPE":0,"CLASSIFICATION_TYPE":"U","NORAD_CAT_ID":68722,"ELEMENT_SET_NO":999,"REV_AT_EPOCH":246,"BSTAR":0.0015734,"MEAN_MOTION_DOT":0.003233,"MEAN_MOTION_DDOT":0},{"OBJECT_NAME":"STARLINK-37273","OBJECT_ID":"2026-081AA","EPOCH":"2026-04-29T19:58:17.726304","MEAN_MOTION":15.80986037,"ECCENTRICITY":0.0002515,"INCLINATION":53.1587,"RA_OF_ASC_NODE":164.4248,"ARG_OF_PERICENTER":67.6433,"MEAN_ANOMALY":292.4856,"EPHEMERIS_TYPE":0,"CLASSIFICATION_TYPE":"U","NORAD_CAT_ID":68723,"ELEMENT_SET_NO":999,"REV_AT_EPOCH":246,"BSTAR":0.0017145,"MEAN_MOTION_DOT":0.00353758,"MEAN_MOTION_DDOT":0},{"OBJECT_NAME":"STARLINK-37274","OBJECT_ID":"2026-081AB","EPOCH":"2026-04-29T13:53:03.760800","MEAN_MOTION":15.80927298,"ECCENTRICITY":6.98e-5,"INCLINATION":53.1591,"RA_OF_ASC_NODE":165.6868,"ARG_OF_PERICENTER":85.5871,"MEAN_ANOMALY":274.5231,"EPHEMERIS_TYPE":0,"CLASSIFICATION_TYPE":"U","NORAD_CAT_ID":68724,"ELEMENT_SET_NO":999,"REV_AT_EPOCH":242,"BSTAR":0.00080662,"MEAN_MOTION_DOT":0.00161926,"MEAN_MOTION_DDOT":0},{"OBJECT_NAME":"STARLINK-37275","OBJECT_ID":"2026-081AC","EPOCH":"2026-04-29T19:55:03.036864","MEAN_MOTION":15.81000279,"ECCENTRICITY":0.0002155,"INCLINATION":53.1587,"RA_OF_ASC_NODE":164.4095,"ARG_OF_PERICENTER":72.1695,"MEAN_ANOMALY":287.9563,"EPHEMERIS_TYPE":0,"CLASSIFICATION_TYPE":"U","NORAD_CAT_ID":68725,"ELEMENT_SET_NO":999,"REV_AT_EPOCH":246,"BSTAR":0.0017671,"MEAN_MOTION_DOT":0.00365359,"MEAN_MOTION_DDOT":0}]
